[{"OBJECT_NAME":"KUIPER-00105","OBJECT_ID":"2025-171M","EPOCH":"2026-03-09T06:20:09.795264","MEAN_MOTION":14.7988999,"ECCENTRICITY":0.00012681,"INCLINATION":51.8994,"RA_OF_ASC_NODE":167.5344,"ARG_OF_PERICENTER":99.8201,"MEAN_ANOMALY":260.2904,"EPHEMERIS_TYPE":0,"CLASSIFICATION_TYPE":"U","NORAD_CAT_ID":65143,"ELEMENT_SET_NO":999,"REV_AT_EPOCH":3272,"BSTAR":0.00077347518,"MEAN_MOTION_DOT":5.674e-5,"MEAN_MOTION_DDOT":0},{"OBJECT_NAME":"CZ-6A DEB","OBJECT_ID":"2024-140ABA","EPOCH":"2026-03-09T14:36:12.989088","MEAN_MOTION":14.56219068,"ECCENTRICITY":0.0126515,"INCLINATION":88.9888,"RA_OF_ASC_NODE":281.7041,"ARG_OF_PERICENTER":264.5159,"MEAN_ANOMALY":94.161,"EPHEMERIS_TYPE":0,"CLASSIFICATION_TYPE":"U","NORAD_CAT_ID":61492,"ELEMENT_SET_NO":999,"REV_AT_EPOCH":7918,"BSTAR":0.00081847,"MEAN_MOTION_DOT":4.048e-5,"MEAN_MOTION_DDOT":0}]
